ORBCOMM FM103 [+]       
1 40091U 14040F   24092.60160471  .00001033  00000+0  26775-3 0  9991
2 40091  47.0057 300.4646 0001446  45.9187 314.1817 14.56429562499697
ORBCOMM FM114 [+]       
1 41179U 15081A   24092.42985663  .00001579  00000+0  38937-3 0  9991
2 41179  47.0009 210.5694 0001158 152.5598 207.5348 14.56451809440034
ORBCOMM FM119 [-]       
1 41180U 15081B   24092.46776189  .00000859  00000+0  22912-3 0  9994
2 41180  46.9995 119.5776 0001663 223.1580 136.9174 14.56417328441293
ORBCOMM FM105 [-]       
1 41181U 15081C   24092.32195492  .00000526  00000+0  19684-3 0  9995
2 41181  47.0011  83.6061 0001247 168.7857 191.3051 14.44298403436855
ORBCOMM FM110 [+]       
1 41182U 15081D   24092.61278030  .00001561  00000+0  38542-3 0  9992
2 41182  46.9998 209.1187 0002453 285.7297  74.3317 14.56440878439935
ORBCOMM FM118 [+]       
1 41183U 15081E   24092.58998922  .00001551  00000+0  38326-3 0  9997
2 41183  47.0023 209.5231 0002627 283.5891  76.4701 14.56440475440036
ORBCOMM FM112 [+]       
1 41184U 15081F   24092.44567647  .00001039  00000+0  26919-3 0  9995
2 41184  46.9980 118.9113 0001165 221.8526 138.2270 14.56429820441237
ORBCOMM FM113 [+]       
1 41185U 15081G   24092.35414959  .00000968  00000+0  25333-3 0  9992
2 41185  46.9998 119.6015 0001360 241.6139 118.4609 14.56425260441200
